     2.100          NAVIGATION                              RINEX VERSION / TYPE
fic2rin                                 08/08/2013 00:17:13 PGM / RUN BY / DATE
                                                            END OF HEADER
13 13  8  7  4  0  0.0  .925059430301D-04 -.375166564481D-11  .000000000000D+00
     .910000000000D+02 -.332812500000D+02  .407516974718D-08  .700218283611D+00
    -.194273889065D-05  .509827048518D-02  .987015664577D-05  .515371796989D+04
     .273600000000D+06 -.745058059692D-08 -.522994838640D+00 -.115483999252D-06
     .980851380191D+00  .199593750000D+03  .218594226241D+01 -.778460997454D-08
    -.668242120681D-09  .100000000000D+01  .175200000000D+04  .000000000000D+00
     .340000000000D+01  .000000000000D+00 -.107102096081D-07  .910000000000D+02
     .266406000000D+06  .400000000000D+01
15 13  8  7  4  0  0.0 -.131066888571D-03 -.170530256582D-11  .000000000000D+00
     .420000000000D+02 -.421875000000D+02  .514950021164D-08  .411144941151D+00
    -.221095979214D-05  .550402223598D-02  .803731381893D-05  .515380500031D+04
     .273600000000D+06  .130385160446D-07 -.654953354122D+00  .372529029846D-07
     .939990275922D+00  .209531250000D+03  .162144807468D+00 -.837356307823D-08
    -.673242328960D-09  .100000000000D+01  .175200000000D+04  .000000000000D+00
     .240000000000D+01  .000000000000D+00 -.977888703346D-08  .420000000000D+02
     .266406000000D+06  .400000000000D+01
16 13  8  7  4  0  0.0 -.249057076871D-03  .568434188608D-12  .000000000000D+00
     .590000000000D+02  .299375000000D+02  .426982071231D-08  .214961310134D+01
     .153854489326D-05  .708363822196D-02  .184401869774D-05  .515368347168D+04
     .273600000000D+06 -.800937414169D-07  .152111658996D+01  .316649675369D-07
     .985176924665D+00  .359687500000D+03  .135667581888D+00 -.821927093705D-08
     .542879755978D-10  .100000000000D+01  .175200000000D+04  .000000000000D+00
     .240000000000D+01  .000000000000D+00 -.977888703346D-08  .590000000000D+02
     .266406000000D+06  .400000000000D+01
17 13  8  7  4  0  0.0 -.869901850820D-05 -.386535248253D-11  .000000000000D+00
     .800000000000D+01 -.113531250000D+03  .433482341994D-08  .117887041778D+01
    -.596418976784D-05  .841585441958D-02  .703334808350D-05  .515367034149D+04
     .273600000000D+06 -.119209289551D-06  .255739549164D+01 -.931322574615D-08
     .966269735459D+00  .245562500000D+03 -.219040582297D+01 -.816284001505D-08
    -.335013954676D-09  .100000000000D+01  .175200000000D+04  .000000000000D+00
     .240000000000D+01  .000000000000D+00 -.102445483208D-07  .800000000000D+01
     .266406000000D+06  .400000000000D+01
18 13  8  7  4  0  0.0  .267468392849D-03  .204636307899D-11  .000000000000D+00
     .570000000000D+02  .184062500000D+02  .574059626173D-08  .268113925982D+01
     .791624188423D-06  .145893595181D-01  .370852649212D-05  .515361626244D+04
     .273600000000D+06  .335276126862D-07 -.167379756825D+01 -.216066837311D-06
     .926521243294D+00  .288218750000D+03 -.208603010707D+01 -.846749556232D-08
     .144648882349D-09  .100000000000D+01  .175200000000D+04  .000000000000D+00
     .240000000000D+01  .000000000000D+00 -.107102096081D-07  .570000000000D+02
     .266406000000D+06  .400000000000D+01
19 13  8  7  4  0  0.0 -.394673552364D-03 -.284217094304D-11  .000000000000D+00
     .650000000000D+02 -.115625000000D+03  .438018245218D-08  .389013888653D+00
    -.594556331635D-05  .950950407423D-02  .785104930401D-05  .515373214722D+04
     .273600000000D+06  .143423676491D-06  .260912486740D+01  .165775418282D-06
     .963521381984D+00  .229906250000D+03  .356078222076D+00 -.816141138411D-08
    -.290012080167D-09  .100000000000D+01  .175200000000D+04  .000000000000D+00
     .240000000000D+01  .000000000000D+00 -.144354999065D-07  .650000000000D+02
     .266406000000D+06  .400000000000D+01
20 13  8  7  4  0  0.0  .114101916552D-03  .238742359215D-11  .000000000000D+00
     .110000000000D+03  .269062500000D+02  .582024243646D-08 -.310769579571D+01
     .138953328133D-05  .540919532068D-02  .441074371338D-05  .515369101524D+04
     .273600000000D+06  .104308128357D-06 -.172719139076D+01 -.108033418655D-06
     .927344659902D+00  .274781250000D+03  .128796624910D+01 -.864286000981D-08
     .299298181256D-09  .100000000000D+01  .175200000000D+04  .000000000000D+00
     .240000000000D+01  .000000000000D+00 -.791624188423D-08  .110000000000D+03
     .266406000000D+06  .400000000000D+01
21 13  8  7  4  0  0.0 -.312298536301D-03 -.193267624127D-11  .000000000000D+00
     .220000000000D+02  .850000000000D+01  .486270255108D-08 -.257325821227D+01
     .651925802231D-07  .204730322585D-01  .113472342491D-04  .515365782547D+04
     .273600000000D+06  .266358256340D-06 -.272104767527D+01 -.132247805595D-06
     .932064390577D+00  .140250000000D+03 -.211416063343D+01 -.783925510787D-08
     .638598028743D-09  .100000000000D+01  .175200000000D+04  .000000000000D+00
     .240000000000D+01  .000000000000D+00 -.111758708954D-07  .220000000000D+02
     .266406000000D+06  .400000000000D+01
22 13  8  7  4  0  0.0  .178960151970D-03  .181898940355D-11  .000000000000D+00
     .910000000000D+02  .178750000000D+02  .592417533711D-08  .209683142812D+01
     .873580574989D-06  .681311835069D-02  .404007732868D-05  .515363944244D+04
     .273600000000D+06 -.242143869400D-07 -.167133151993D+01 -.173225998878D-06
     .924272648969D+00  .283812500000D+03 -.203304736161D+01 -.870036240502D-08
     .212508851847D-09  .100000000000D+01  .175200000000D+04  .000000000000D+00
     .340000000000D+01  .000000000000D+00 -.172294676304D-07  .910000000000D+02
     .266406000000D+06  .400000000000D+01
23 13  8  7  4  0  0.0  .598551705480D-04 -.352429196937D-11  .000000000000D+00
     .102000000000D+03 -.392500000000D+02  .480662878681D-08 -.692902780353D-01
    -.217929482460D-05  .885004305746D-02  .873021781445D-05  .515367304993D+04
     .273600000000D+06  .875443220139D-07 -.612728981364D+00  .447034835815D-07
     .954996175675D+00  .205625000000D+03 -.284651879860D+01 -.822855703814D-08
    -.689671584733D-09  .100000000000D+01  .175200000000D+04  .000000000000D+00
     .340000000000D+01  .000000000000D+00 -.200234353542D-07  .102000000000D+03
     .266406000000D+06  .400000000000D+01
24 13  8  7  4  0  0.0 -.113942660391D-04 -.682121026330D-12  .000000000000D+00
     .680000000000D+02  .837500000000D+02  .421481842125D-08 -.852352238795D+00
     .432319939137D-05  .956590636633D-03  .104513019323D-04  .515367429733D+04
     .273600000000D+06  .614672899246D-07  .413332044642D+00  .000000000000D+00
     .958939731757D+00  .181000000000D+03  .324227012282D+00 -.789604318761D-08
    -.235724104569D-10  .100000000000D+01  .175200000000D+04  .000000000000D+00
     .340000000000D+01  .000000000000D+00  .325962901115D-08  .680000000000D+02
     .266406000000D+06  .400000000000D+01
25 13  8  7  4  0  0.0  .132280401886D-03  .477484718431D-11  .000000000000D+00
     .810000000000D+02  .360937500000D+02  .440304054717D-08 -.293408523613D+01
     .195205211639D-05  .275127962232D-02  .157207250595D-05  .515373965073D+04
     .273600000000D+06  .279396772385D-07  .146359731067D+01  .242143869400D-07
     .973325121641D+00  .355343750000D+03  .744089684151D+00 -.825355807954D-08
     .171078554680D-09  .100000000000D+01  .175200000000D+04  .000000000000D+00
     .240000000000D+01  .000000000000D+00  .558793544769D-08  .810000000000D+02
     .266406000000D+06  .400000000000D+01
26 13  8  7  4  0  0.0  .130963511765D-03  .172803993337D-10  .000000000000D+00
     .460000000000D+02 -.328125000000D+02  .431946563737D-08 -.724020364526D-01
    -.156089663506D-05  .210574537050D-01  .954791903496D-05  .515368922043D+04
     .273600000000D+06 -.230967998505D-06 -.530642918768D+00  .197440385818D-06
     .978285781758D+00  .207156250000D+03  .124804313572D+01 -.820569894316D-08
    -.609311094539D-09  .100000000000D+01  .175200000000D+04  .000000000000D+00
     .240000000000D+01  .000000000000D+00 -.558793544769D-08  .460000000000D+02
     .266406000000D+06  .400000000000D+01
27 13  8  7  4  0  0.0 -.206604599953D-04 -.488853402203D-11  .000000000000D+00
     .710000000000D+02 -.114187500000D+03  .442911306177D-08  .401823704062D+00
    -.598467886448D-05  .356668955646D-03  .718981027603D-05  .515366863251D+04
     .273600000000D+06  .130385160446D-07  .251374552862D+01  .298023223877D-07
     .960823368984D+00  .240750000000D+03  .880977793221D+00 -.814498212834D-08
    -.305727020472D-09  .100000000000D+01  .175200000000D+04  .000000000000D+00
     .240000000000D+01  .000000000000D+00  .186264514923D-08  .710000000000D+02
     .266406000000D+06  .400000000000D+01
28 13  8  7  4  0  0.0  .282089225948D-03  .318323145621D-11  .000000000000D+00
     .530000000000D+02  .343437500000D+02  .417088801994D-08  .196693016020D+01
     .143051147461D-05  .186598687433D-01  .177882611752D-05  .515364529610D+04
     .273600000000D+06  .141561031342D-06  .152727391268D+01 -.355765223503D-06
     .983635851650D+00  .354593750000D+03 -.176509675683D+01 -.803676333488D-08
     .160006664920D-09  .100000000000D+01  .175200000000D+04  .000000000000D+00
     .240000000000D+01  .000000000000D+00 -.107102096081D-07  .530000000000D+02
     .266406000000D+06  .400000000000D+01
30 13  8  7  4  0  0.0 -.167778693140D-03  .102318153949D-11  .000000000000D+00
     .600000000000D+02  .334687500000D+02  .565309261686D-08  .209015214062D+01
     .166520476341D-05  .637042277958D-02  .170618295670D-05  .515369120026D+04
     .273600000000D+06 -.633299350739D-07  .148055901047D+01 -.141561031342D-06
     .978132956558D+00  .356687500000D+03  .887345956081D+00 -.830498879326D-08
     .147148986489D-09  .100000000000D+01  .175200000000D+04  .000000000000D+00
     .240000000000D+01  .630000000000D+02 -.190921127796D-07  .600000000000D+02
     .266406000000D+06  .400000000000D+01
